GSAT0101 (PRN E11)      
1 37846U 11060A   21136.13257236 -.00000077  00000-0  00000-0 0  9993
2 37846  56.8212  32.1645 0004021  11.0674 348.9810  1.70475373 59443
GSAT0102 (PRN E12)      
1 37847U 11060B   21136.34992439 -.00000077  00000-0  00000-0 0  9998
2 37847  56.8222  32.1579 0004543 343.2222 196.4814  1.70475584 59454
GSAT0103 (PRN E19)      
1 38857U 12055A   21136.17385297  .00000078  00000-0  00000-0 0  9994
2 38857  55.0387 152.6246 0005253 269.1966  90.7813  1.70473798 53339
GSAT0104 (PRN E20)      
1 38858U 12055B   21136.14466073  .00000078  00000-0  00000-0 0  9994
2 38858  55.0388 152.6269 0002907 271.6088  88.3961  1.70474130 53330
GSAT0201 (PRN E18)      
1 40128U 14050A   21135.42688410 -.00000089  00000-0  00000-0 0  9998
2 40128  50.4873 348.1379 1650435 110.2458 268.2577  1.85518919 43836
GSAT0202 (PRN E14)      
1 40129U 14050B   21134.07234787 -.00000096  00000-0  00000-0 0  9991
2 40129  50.5191 347.2399 1647777 111.0086 267.3996  1.85519631 45978
GSAT0203 (PRN E26)      
1 40544U 15017A   21135.91409726 -.00000078  00000-0  00000-0 0  9997
2 40544  56.6155  32.2581 0002360 285.5303  74.4827  1.70474571 37520
GSAT0204 (PRN E22)      
1 40545U 15017B   21136.16741056 -.00000077  00000-0  00000-0 0  9990
2 40545  56.6218  32.2619 0001545 267.0168  93.0047  1.70475602   573
GSAT0205 (PRN E24)      
1 40889U 15045A   21133.58937402 -.00000024  00000-0  00000-0 0  9999
2 40889  55.9021 273.0013 0004190  24.8740 335.1089  1.70475640 35290
GSAT0206 (PRN E30)      
1 40890U 15045B   21133.80886266 -.00000023  00000-0  00000-0 0  9996
2 40890  55.9009 272.9914 0002379  21.1363 338.8376  1.70475736 35323
GSAT0209 (PRN E09)      
1 41174U 15079A   21134.56972909  .00000076  00000-0  00000+0 0  9999
2 41174  55.0535 152.3691 0005758 302.9846  57.0038  1.70473524 33659
GSAT0208 (PRN E08)      
1 41175U 15079B   21135.37598515  .00000077  00000-0  00000-0 0  9999
2 41175  55.0520 152.3460 0004951 301.6608  58.3310  1.70473626 33508
GSAT0211 (PRN E02)      
1 41549U 16030A   21134.91040121 -.00000017  00000-0  00000-0 0  9991
2 41549  56.0430 272.8522 0002729 335.9541  24.0041  1.70475364 30978
GSAT0210 (PRN E01)      
1 41550U 16030B   21135.78980626 -.00000013  00000-0  00000-0 0  9998
2 41550  56.0430 272.8297 0001806 287.3684  72.5880  1.70475506 30980
GSAT0207 (PRN E07)      
1 41859U 16069A   21136.03553740  .00000077  00000-0  00000-0 0  9993
2 41859  54.7129 152.6085 0005851 292.2206  67.7558  1.70473441 27723
GSAT0212 (PRN E03)      
1 41860U 16069B   21135.88896145  .00000077  00000-0  00000-0 0  9996
2 41860  54.7105 152.6108 0004532 308.0793  51.9187  1.70473478 27977
GSAT0213 (PRN E04)      
1 41861U 16069C   21135.66805636  .00000077  00000-0  00000-0 0  9998
2 41861  54.7130 152.6215 0005359 275.5154  84.4632  1.70473563 27838
GSAT0214 (PRN E05)      
1 41862U 16069D   21132.29560691  .00000074  00000-0  00000-0 0  9991
2 41862  54.7104 152.7099 0004471 278.9922  81.0143  1.70473638 27906
GSAT0215 (PRN E21)      
1 43055U 17079A   21135.71925319 -.00000013  00000-0  00000-0 0  9995
2 43055  56.0191 272.6684 0001203 277.4880  82.4743  1.70474569 21305
GSAT0216 (PRN E25)      
1 43056U 17079B   21134.25200866 -.00000020  00000-0  00000-0 0  9995
2 43056  56.0191 272.7083 0002972 278.5841  81.3492  1.70474701 21298
GSAT0217 (PRN E27)      
1 43057U 17079C   21135.64531649 -.00000013  00000-0  00000-0 0  9998
2 43057  56.0172 272.6704 0002644 298.2010  61.7478  1.70474623 21301
GSAT0218 (PRN E31)      
1 43058U 17079D   21136.45190959 -.00000010  00000-0  00000-0 0  9991
2 43058  56.0167 272.6457 0003482 271.5989  88.3410  1.70474644 21349
GSAT0221 (PRN E15)      
1 43564U 18060A   21132.24442560 -.00000091  00000-0  00000-0 0  9994
2 43564  56.9988  32.0715 0003665 301.3073  58.6872  1.70475655 17424
GSAT0222 (PRN E33)      
1 43565U 18060B   21134.81062289 -.00000081  00000-0  00000-0 0  9995
2 43565  57.0022  32.0016 0003598 312.4616  47.5462  1.70475611 17515
GSAT0219 (PRN E36)      
1 43566U 18060C   21136.20437623 -.00000077  00000-0  00000-0 0  9994
2 43566  57.0038  31.9655 0003274 316.5215  43.4927  1.70475572 17518
GSAT0220 (PRN E13)      
1 43567U 18060D   21135.25101216 -.00000079  00000-0  00000-0 0  9997
2 43567  57.0025  31.9923 0003309 309.6477  50.3621  1.70475630 17484
